COSMOS 2425 (716)       
1 29670U 06062A   18308.71018699 -.00000017  00000-0  10000-3 0  9992
2 29670  65.2119 287.7850 0021566 338.4493 259.2125  2.13105060 92309
COSMOS 2426 (717)       
1 29671U 06062B   18308.74629716 -.00000017  00000-0  10000-3 0  9994
2 29671  65.2305 287.8822 0017893 174.5173 305.5790  2.13103097 92311
COSMOS 2433 (720)       
1 32275U 07052A   18308.66554493 -.00000071  00000-0  10000-3 0  9998
2 32275  65.7543  48.6543 0003045 224.2873 169.9186  2.13104636 85820
COSMOS 2432 (719)       
1 32276U 07052B   18308.72128016 -.00000071  00000-0  10000-3 0  9994
2 32276  65.7675  48.7313 0009127 330.8993  57.6960  2.13103826 85820
COSMOS 2434 (721)       
1 32393U 07065A   18309.45215575 -.00000026  00000-0  00000+0 0  9991
2 32393  64.8273 286.6674 0002148 158.1571   7.2453  2.13103044 84544
COSMOS 2436 (723)       
1 32395U 07065C   18309.26266183 -.00000024  00000-0  10000-3 0  9996
2 32395  64.8364 286.7249 0015000 349.6114  81.6105  2.13104380 84473
COSMOS 2456 (730)       
1 36111U 09070A   18309.12908185  .00000083  00000-0  00000+0 0  9993
2 36111  64.1886 166.2843 0003340 336.5975 113.5882  2.13103115 69207
COSMOS 2457 (733)       
1 36112U 09070B   18309.48637748  .00000084  00000-0  00000+0 0  9998
2 36112  64.1699 166.1793 0006293 154.5296 335.9192  2.13101663 69218
COSMOS 2458 (734)       
1 36113U 09070C   18309.02811601  .00000083  00000-0  10000-3 0  9995
2 36113  64.1741 166.2099 0002753  44.7901 137.7431  2.13091716 69207
COSMOS 2459 (731)       
1 36400U 10007A   18309.38667350 -.00000074  00000-0  10000-3 0  9996
2 36400  65.6630  47.6727 0024675 351.8305  93.3797  2.13102158 67568
COSMOS 2461 (735)       
1 36401U 10007B   18308.82659807 -.00000073  00000-0  10000-3 0  9992
2 36401  65.6555  47.6663 0006868  81.2674 204.8520  2.13102125 67546
COSMOS 2460 (732)       
1 36402U 10007C   18308.93364968 -.00000073  00000-0  10000-3 0  9996
2 36402  65.6455  47.6292 0001627 158.4393 250.1506  2.13101642 67559
COSMOS 2464 (736)       
1 37139U 10041C   18308.64687630 -.00000019  00000-0  00000+0 0  9999
2 37139  64.4313 286.4303 0023026   5.4717 129.9641  2.13102821 63617
COSMOS 2471 (701K)      
1 37372U 11009A   18309.24731471 -.00000074  00000-0  00000+0 0  9994
2 37372  65.6431  47.5619 0009116 224.1093 212.1154  2.13107686 59834
COSMOS 2474 (742)       
1 37829U 11055A   18309.11201617  .00000083  00000-0  00000+0 0  9991
2 37829  64.5113 167.0618 0007241 241.7236  52.8313  2.13101967 55191
COSMOS 2476 (744)       
1 37867U 11064A   18309.37271341  .00000083  00000-0  00000+0 0  9992
2 37867  64.4913 167.1109 0017079 238.1270 302.4986  2.13102015 54558
COSMOS 2477 (745)       
1 37868U 11064B   18309.16374855  .00000083  00000-0  00000+0 0  9994
2 37868  64.4990 167.1705 0014940 239.2725 319.8764  2.13101892 54500
COSMOS 2475 (743)       
1 37869U 11064C   18309.19576251  .00000083  00000-0  00000+0 0  9992
2 37869  64.5051 167.1643 0018945 265.9964 274.6062  2.13102277 54519
COSMOS 2485 (747)       
1 39155U 13019A   18309.31040090  .00000083  00000-0  00000+0 0  9995
2 39155  64.6599 167.2540 0017676 232.8296 304.8346  2.13102033 43020
COSMOS 2492 (754)       
1 39620U 14012A   18308.64387977 -.00000073  00000-0  10000-3 0  9994
2 39620  65.5355  47.5043 0012380 326.4634  94.7823  2.13103499 35964
COSMOS 2500 (755)       
1 40001U 14032A   18308.62429782 -.00000073  00000-0  00000+0 0  9995
2 40001  65.4774  47.4642 0007440 198.4413  69.7277  2.13102679 34176
COSMOS 2501 (702K)      
1 40315U 14075A   18309.11080024 -.00000024  00000-0  00000+0 0  9993
2 40315  64.1555 287.5733 0017131 212.2522 229.2973  2.13098604 30599
COSMOS 2514 (751)       
1 41330U 16008A   18308.60200448 -.00000073  00000-0  00000+0 0  9990
2 41330  65.2787  47.4837 0010598 208.5063 223.7631  2.13103282 21344
COSMOS 2516 (753)       
1 41554U 16032A   18308.50754043 -.00000017  00000-0  00000-0 0  9998
2 41554  64.3755 287.5008 0014568 224.9655  25.6518  2.13101781 18941
COSMOS 2522 (752)       
1 42939U 17055A   18308.64201252 -.00000018  00000-0  00000-0 0  9997
2 42939  64.6059 287.5042 0010065 249.1753 331.0413  2.13102029  8700
